OBJECT_NAME,OBJECT_ID,EPOCH,MEAN_MOTION,ECCENTRICITY,INCLINATION,RA_OF_ASC_NODE,ARG_OF_PERICENTER,MEAN_ANOMALY,EPHEMERIS_TYPE,CLASSIFICATION_TYPE,NORAD_CAT_ID,ELEMENT_SET_NO,REV_AT_EPOCH,BSTAR,MEAN_MOTION_DOT,MEAN_MOTION_DDOT
LEMUR-2-FINNIAN,2025-276DX,2026-06-07T16:13:59.827296,15.00258521,.0008493,97.5257,229.9723,117.8097,242.3988,0,U,66782,999,1857,.59582E-3,.7411E-4,0
LEMUR-2-STARLIGHT,2025-276DY,2026-06-07T10:10:37.748928,14.98940877,.0015289,97.5272,229.3957,156.0378,204.1560,0,U,66783,999,2873,.54581E-3,.6564E-4,0
LEMUR-2-TARTIFLETTE,2025-276DZ,2026-06-07T16:33:12.303072,14.98968032,.0013902,97.5278,229.6577,161.2437,198.9302,0,U,66784,999,2877,.66245E-3,.7983E-4,0
LEMUR-2-VUKASIN,2025-276EA,2026-06-07T16:35:52.187136,15.00263050,.0006265,97.5304,229.9333,146.4593,213.7029,0,U,66785,999,2872,.56851E-3,.7067E-4,0
LEMUR-2-HOTSPUR-TOM,2025-276EB,2026-06-07T16:21:25.400736,14.98842965,.0015251,97.5248,229.6341,156.6715,203.5203,0,U,66786,999,2870,.65675E-3,.7891E-4,0
LEMUR-2-MYRA,2025-276EC,2026-06-07T17:19:56.244000,15.00119085,.0015448,97.5219,229.9151,173.0137,187.1306,0,U,66787,999,2879,.61073E-3,.7583E-4,0
LEMUR-2 FIKRETDENGIZ,2026-004A,2026-06-07T14:05:42.180864,14.88256400,.0009241,97.8016,157.2936,161.2681,198.8877,0,U,67363,999,2185,.48613E-3,.444E-4,0
TWILIGHT-1 OBJECT B,2026-004B,2026-06-07T11:21:35.890848,14.87669709,.0009323,97.8060,157.2006,152.6411,207.5298,0,U,67364,999,2184,.28482E-3,.254E-4,0
LEMUR-2-MARIO-SOUSA,2026-004C,2026-06-07T16:57:26.492832,14.88440120,.0008816,97.7995,157.4074,161.1539,199.0006,0,U,67365,999,2188,.5152E-3,.473E-4,0
LEMUR-2-SONNENBLUME,2026-004E,2026-06-07T13:39:48.030624,14.88268863,.0008472,97.7983,157.2602,163.2726,196.8771,0,U,67367,999,2186,.34861E-3,.3168E-4,0
LEMUR-2-WOBLER,2026-004F,2026-06-07T13:32:13.227072,14.88452876,.0008829,97.8041,157.3680,152.8185,207.3496,0,U,67368,999,2186,.47901E-3,.4395E-4,0
LEMUR-2-GRAM-E-SUE,2026-004H,2026-06-07T18:08:50.831232,14.88431584,.0007404,97.7973,157.4590,163.2680,196.8782,0,U,67370,999,2189,.34586E-3,.3155E-4,0
LEMUR-2-KATIE,2026-004AA,2026-06-07T13:14:42.036288,14.89986031,.0004737,97.8038,157.6861,112.7480,247.4238,0,U,67387,999,2187,.59567E-3,.569E-4,0
LEMUR-2-HCS-BAZUS,2026-004AB,2026-06-07T18:03:31.855392,14.89984112,.0004366,97.8027,157.8662,107.6536,252.5159,0,U,67388,999,2190,.668E-3,.6388E-4,0
