LEMUR-2-FINNIAN         
1 66782U 25276DX  26158.67638689  .00007411  00000+0  59582-3 0  9990
2 66782  97.5257 229.9723 0008493 117.8097 242.3988 15.00258521 18573
LEMUR-2-STARLIGHT       
1 66783U 25276DY  26158.42404802  .00006564  00000+0  54581-3 0  9994
2 66783  97.5272 229.3957 0015289 156.0378 204.1560 14.98940877 28731
LEMUR-2-TARTIFLETTE     
1 66784U 25276DZ  26158.68972573  .00007983  00000+0  66245-3 0  9994
2 66784  97.5278 229.6577 0013902 161.2437 198.9302 14.98968032 28774
LEMUR-2-VUKASIN         
1 66785U 25276EA  26158.69157624  .00007067  00000+0  56851-3 0  9993
2 66785  97.5304 229.9333 0006265 146.4593 213.7029 15.00263050 28729
LEMUR-2-HOTSPUR-TOM     
1 66786U 25276EB  26158.68154399  .00007891  00000+0  65675-3 0  9998
2 66786  97.5248 229.6341 0015251 156.6715 203.5203 14.98842965 28700
LEMUR-2-MYRA            
1 66787U 25276EC  26158.72217875  .00007583  00000+0  61073-3 0  9999
2 66787  97.5219 229.9151 0015448 173.0137 187.1306 15.00119085 28794
LEMUR-2 FIKRETDENGIZ    
1 67363U 26004A   26158.58729376  .00004440  00000+0  48613-3 0  9992
2 67363  97.8016 157.2936 0009241 161.2681 198.8877 14.88256400 21854
TWILIGHT-1 OBJECT B     
1 67364U 26004B   26158.47333207  .00002540  00000+0  28482-3 0  9996
2 67364  97.8060 157.2006 0009323 152.6411 207.5298 14.87669709 21841
LEMUR-2-MARIO-SOUSA     
1 67365U 26004C   26158.70655663  .00004730  00000+0  51520-3 0  9998
2 67365  97.7995 157.4074 0008816 161.1539 199.0006 14.88440120 21888
LEMUR-2-SONNENBLUME     
1 67367U 26004E   26158.56930591  .00003168  00000+0  34861-3 0  9993
2 67367  97.7983 157.2602 0008472 163.2726 196.8771 14.88268863 21865
LEMUR-2-WOBLER          
1 67368U 26004F   26158.56404198  .00004395  00000+0  47901-3 0  9995
2 67368  97.8041 157.3680 0008829 152.8185 207.3496 14.88452876 21869
LEMUR-2-GRAM-E-SUE      
1 67370U 26004H   26158.75614388  .00003155  00000+0  34586-3 0  9991
2 67370  97.7973 157.4590 0007404 163.2680 196.8782 14.88431584 21896
LEMUR-2-KATIE           
1 67387U 26004AA  26158.55187542  .00005690  00000+0  59567-3 0  9996
2 67387  97.8038 157.6861 0004737 112.7480 247.4238 14.89986031 21873
LEMUR-2-HCS-BAZUS       
1 67388U 26004AB  26158.75245203  .00006388  00000+0  66800-3 0  9991
2 67388  97.8027 157.8662 0004366 107.6536 252.5159 14.89984112 21907
